{
  "type": "FeatureCollection",
  "features": [
    {
      "type": "Feature",
      "properties": {
        "norad_id": 66927,
        "name": "STARLINK-35943",
        "group": "last-30-days",
        "lat": -45.48750122417897,
        "lon": -48.066473787970466,
        "alt_km": 356.275455344633,
        "timestamp": "2025-12-22T11:33:19.156649+00:00",
        "meta_object_name": "STARLINK-35943",
        "meta_object_id": "2025-286C",
        "meta_epoch": "2025-12-22T04:00:01.998720",
        "meta_mean_motion": 15.74193324,
        "meta_eccentricity": 0.0001109,
        "meta_inclination": 53.1591,
        "meta_ra_of_asc_node": 3.1906,
        "meta_arg_of_pericenter": 119.1005,
        "meta_mean_anomaly": 193.7732,
        "meta_ephemeris_type": 0,
        "meta_classification_type": "U",
        "meta_norad_cat_id": 66927,
        "meta_element_set_no": 999,
        "meta_rev_at_epoch": 350,
        "meta_bstar": -0.015433,
        "meta_mean_motion_dot": -0.01998066,
        "meta_mean_motion_ddot": 0,
        "tle_line1": "1 66927U 25286C   25356.16668980 -.01998066  00000+0 -15433-1 0  9995",
        "tle_line2": "2 66927  53.1591   3.1906 0001109 119.1005 193.7732 15.74193324  3502"
      },
      "geometry": {
        "type": "Point",
        "coordinates": [
          -48.066473787970466,
          -45.48750122417897
        ]
      }
    },
    {
      "type": "Feature",
      "properties": {
        "norad_id": 66928,
        "name": "STARLINK-35944",
        "group": "last-30-days",
        "lat": -47.35955130609385,
        "lon": -52.87126374388695,
        "alt_km": 356.16409400783596,
        "timestamp": "2025-12-22T11:33:19.156663+00:00",
        "meta_object_name": "STARLINK-35944",
        "meta_object_id": "2025-286D",
        "meta_epoch": "2025-12-22T04:00:01.998720",
        "meta_mean_motion": 15.74249549,
        "meta_eccentricity": 7.94e-05,
        "meta_inclination": 53.159,
        "meta_ra_of_asc_node": 3.1983,
        "meta_arg_of_pericenter": 114.8828,
        "meta_mean_anomaly": 194.1493,
        "meta_ephemeris_type": 0,
        "meta_classification_type": "U",
        "meta_norad_cat_id": 66928,
        "meta_element_set_no": 999,
        "meta_rev_at_epoch": 350,
        "meta_bstar": -0.016151,
        "meta_mean_motion_dot": -0.02083873,
        "meta_mean_motion_ddot": 0,
        "tle_line1": "1 66928U 25286D   25356.16668980 -.02083873  00000+0 -16151-1 0  9996",
        "tle_line2": "2 66928  53.1590   3.1983 0000794 114.8828 194.1493 15.74249549  3501"
      },
      "geometry": {
        "type": "Point",
        "coordinates": [
          -52.87126374388695,
          -47.35955130609385
        ]
      }
    },
    {
      "type": "Feature",
      "properties": {
        "norad_id": 66929,
        "name": "STARLINK-36169",
        "group": "last-30-days",
        "lat": -44.46484100350022,
        "lon": -45.75698129387468,
        "alt_km": 355.9996680086142,
        "timestamp": "2025-12-22T11:33:19.156673+00:00",
        "meta_object_name": "STARLINK-36169",
        "meta_object_id": "2025-286E",
        "meta_epoch": "2025-12-22T04:00:01.998720",
        "meta_mean_motion": 15.74226252,
        "meta_eccentricity": 8.17e-05,
        "meta_inclination": 53.159,
        "meta_ra_of_asc_node": 3.1858,
        "meta_arg_of_pericenter": 86.5732,
        "meta_mean_anomaly": 228.2293,
        "meta_ephemeris_type": 0,
        "meta_classification_type": "U",
        "meta_norad_cat_id": 66929,
        "meta_element_set_no": 999,
        "meta_rev_at_epoch": 350,
        "meta_bstar": -0.015968,
        "meta_mean_motion_dot": -0.02061252,
        "meta_mean_motion_ddot": 0,
        "tle_line1": "1 66929U 25286E   25356.16668980 -.02061252  00000+0 -15968-1 0  9999",
        "tle_line2": "2 66929  53.1590   3.1858 0000817  86.5732 228.2293 15.74226252  3501"
      },
      "geometry": {
        "type": "Point",
        "coordinates": [
          -45.75698129387468,
          -44.46484100350022
        ]
      }
    },
    {
      "type": "Feature",
      "properties": {
        "norad_id": 66930,
        "name": "STARLINK-36206",
        "group": "last-30-days",
        "lat": -43.42069009554095,
        "lon": -43.5754545389934,
        "alt_km": 355.9291852149727,
        "timestamp": "2025-12-22T11:33:19.156683+00:00",
        "meta_object_name": "STARLINK-36206",
        "meta_object_id": "2025-286F",
        "meta_epoch": "2025-12-22T04:00:01.998720",
        "meta_mean_motion": 15.74273789,
        "meta_eccentricity": 8.81e-05,
        "meta_inclination": 53.1588,
        "meta_ra_of_asc_node": 3.1823,
        "meta_arg_of_pericenter": 92.9019,
        "meta_mean_anomaly": 223.7454,
        "meta_ephemeris_type": 0,
        "meta_classification_type": "U",
        "meta_norad_cat_id": 66930,
        "meta_element_set_no": 999,
        "meta_rev_at_epoch": 350,
        "meta_bstar": -0.016091,
        "meta_mean_motion_dot": -0.02079109,
        "meta_mean_motion_ddot": 0,
        "tle_line1": "1 66930U 25286F   25356.16668980 -.02079109  00000+0 -16091-1 0  9999",
        "tle_line2": "2 66930  53.1588   3.1823 0000881  92.9019 223.7454 15.74273789  3508"
      },
      "geometry": {
        "type": "Point",
        "coordinates": [
          -43.5754545389934,
          -43.42069009554095
        ]
      }
    },
    {
      "type": "Feature",
      "properties": {
        "norad_id": 66931,
        "name": "STARLINK-36130",
        "group": "last-30-days",
        "lat": -42.30429376572916,
        "lon": -41.40942013554815,
        "alt_km": 355.91509552716343,
        "timestamp": "2025-12-22T11:33:19.156693+00:00",
        "meta_object_name": "STARLINK-36130",
        "meta_object_id": "2025-286G",
        "meta_epoch": "2025-12-22T04:00:01.998720",
        "meta_mean_motion": 15.74233627,
        "meta_eccentricity": 7.99e-05,
        "meta_inclination": 53.1588,
        "meta_ra_of_asc_node": 3.178,
        "meta_arg_of_pericenter": 89.732,
        "meta_mean_anomaly": 228.9064,
        "meta_ephemeris_type": 0,
        "meta_classification_type": "U",
        "meta_norad_cat_id": 66931,
        "meta_element_set_no": 999,
        "meta_rev_at_epoch": 350,
        "meta_bstar": -0.016095,
        "meta_mean_motion_dot": -0.02076265,
        "meta_mean_motion_ddot": 0,
        "tle_line1": "1 66931U 25286G   25356.16668980 -.02076265  00000+0 -16095-1 0  9994",
        "tle_line2": "2 66931  53.1588   3.1780 0000799  89.7320 228.9064 15.74233627  3509"
      },
      "geometry": {
        "type": "Point",
        "coordinates": [
          -41.40942013554815,
          -42.30429376572916
        ]
      }
    },
    {
      "type": "Feature",
      "properties": {
        "norad_id": 66932,
        "name": "STARLINK-36177",
        "group": "last-30-days",
        "lat": -41.16432769434497,
        "lon": -39.348139271548604,
        "alt_km": 356.056326800418,
        "timestamp": "2025-12-22T11:33:19.156703+00:00",
        "meta_object_name": "STARLINK-36177",
        "meta_object_id": "2025-286H",
        "meta_epoch": "2025-12-22T04:00:01.998720",
        "meta_mean_motion": 15.74228104,
        "meta_eccentricity": 0.0001003,
        "meta_inclination": 53.1587,
        "meta_ra_of_asc_node": 3.174,
        "meta_arg_of_pericenter": 103.0469,
        "meta_mean_anomaly": 217.516,
        "meta_ephemeris_type": 0,
        "meta_classification_type": "U",
        "meta_norad_cat_id": 66932,
        "meta_element_set_no": 999,
        "meta_rev_at_epoch": 350,
        "meta_bstar": -0.016079,
        "meta_mean_motion_dot": -0.02074217,
        "meta_mean_motion_ddot": 0,
        "tle_line1": "1 66932U 25286H   25356.16668980 -.02074217  00000+0 -16079-1 0  9992",
        "tle_line2": "2 66932  53.1587   3.1740 0001003 103.0469 217.5160 15.74228104  3503"
      },
      "geometry": {
        "type": "Point",
        "coordinates": [
          -39.348139271548604,
          -41.16432769434497
        ]
      }
    },
    {
      "type": "Feature",
      "properties": {
        "norad_id": 66933,
        "name": "STARLINK-36157",
        "group": "last-30-days",
        "lat": -39.99261637560725,
        "lon": -37.364588000140635,
        "alt_km": 355.7899882696065,
        "timestamp": "2025-12-22T11:33:19.156713+00:00",
        "meta_object_name": "STARLINK-36157",
        "meta_object_id": "2025-286J",
        "meta_epoch": "2025-12-22T04:00:01.998720",
        "meta_mean_motion": 15.74232912,
        "meta_eccentricity": 8.58e-05,
        "meta_inclination": 53.1588,
        "meta_ra_of_asc_node": 3.17,
        "meta_arg_of_pericenter": 84.5624,
        "meta_mean_anomaly": 237.9118,
        "meta_ephemeris_type": 0,
        "meta_classification_type": "U",
        "meta_norad_cat_id": 66933,
        "meta_element_set_no": 999,
        "meta_rev_at_epoch": 350,
        "meta_bstar": -0.01609,
        "meta_mean_motion_dot": -0.02075721,
        "meta_mean_motion_ddot": 0,
        "tle_line1": "1 66933U 25286J   25356.16668980 -.02075721  00000+0 -16090-1 0  9997",
        "tle_line2": "2 66933  53.1588   3.1700 0000858  84.5624 237.9118 15.74232912  3505"
      },
      "geometry": {
        "type": "Point",
        "coordinates": [
          -37.364588000140635,
          -39.99261637560725
        ]
      }
    }
  ]
}